[{"OBJECT_NAME":"LYNK TOWER 4","OBJECT_ID":"2023-001AB","EPOCH":"2026-03-09T16:15:30.644928","MEAN_MOTION":15.31819885,"ECCENTRICITY":0.00103213,"INCLINATION":97.3324,"RA_OF_ASC_NODE":128.594,"ARG_OF_PERICENTER":112.3386,"MEAN_ANOMALY":247.895,"EPHEMERIS_TYPE":0,"CLASSIFICATION_TYPE":"U","NORAD_CAT_ID":55034,"ELEMENT_SET_NO":999,"REV_AT_EPOCH":17658,"BSTAR":0.00030013829,"MEAN_MOTION_DOT":9.16e-5,"MEAN_MOTION_DDOT":0},{"OBJECT_NAME":"STARLINK-35445","OBJECT_ID":"2025-223AC","EPOCH":"2026-03-09T21:15:27.598176","MEAN_MOTION":15.30207832,"ECCENTRICITY":9.957e-5,"INCLINATION":53.1593,"RA_OF_ASC_NODE":293.4007,"ARG_OF_PERICENTER":161.3789,"MEAN_ANOMALY":198.7248,"EPHEMERIS_TYPE":0,"CLASSIFICATION_TYPE":"U","NORAD_CAT_ID":65880,"ELEMENT_SET_NO":999,"REV_AT_EPOCH":2423,"BSTAR":0.00087466974,"MEAN_MOTION_DOT":0.00025642,"MEAN_MOTION_DDOT":0}]
